start=new Date('2022-04-22T00:00:00.000Z').valueOf();
sats=[{"FILE":"3410450","MEAN_MOTION":"15.06394790","ELEMENT_SET_NO":"999","REF_FRAME":"TEME","OBJECT_TYPE":"PAYLOAD","MEAN_ANOMALY":"312.8186","BSTAR":"0.00000240480000","GP_ID":"201773012","MEAN_ELEMENT_THEORY":"SGP4","TLE_LINE1":"1 45738U 20038J   22111.75266944 -.00000246  00000-0  24048-5 0  9996","COUNTRY_CODE":"US","TLE_LINE2":"2 45738  53.0544 121.9867 0001920  47.2965 312.8186 15.06394790103590","OBJECT_NAME":"STARLINK-1474","DECAY_DATE":null,"NORAD_CAT_ID":"45738","CLASSIFICATION_TYPE":"U","ARG_OF_PERICENTER":"47.2965","PERIAPSIS":"545.900","APOAPSIS":"548.559","TIME_SYSTEM":"UTC","EPHEMERIS_TYPE":"0","REV_AT_EPOCH":"10359","EPOCH":"2022-04-21T18:03:50.639616","RCS_SIZE":"LARGE","LAUNCH_DATE":"2020-06-13","MEAN_MOTION_DOT":"-0.00000246","RA_OF_ASC_NODE":"121.9867","MEAN_MOTION_DDOT":"0.0000000000000","CENTER_NAME":"EARTH","SEMIMAJOR_AXIS":"6925.365","OBJECT_ID":"2020-038J","INCLINATION":"53.0544","ECCENTRICITY":"0.00019200","SITE":"AFETR","PERIOD":"95.592"},{"OBJECT_ID":"2020-038K","SEMIMAJOR_AXIS":"6925.370","MEAN_MOTION_DDOT":"0.0000000000000","CENTER_NAME":"EARTH","ECCENTRICITY":"0.00018510","INCLINATION":"53.0552","PERIOD":"95.593","SITE":"AFETR","REV_AT_EPOCH":"10398","TIME_SYSTEM":"UTC","EPHEMERIS_TYPE":"0","RCS_SIZE":"LARGE","EPOCH":"2022-04-21T15:13:59.587680","MEAN_MOTION_DOT":"0.00000800","LAUNCH_DATE":"2020-06-13","RA_OF_ASC_NODE":"82.5086","MEAN_ELEMENT_THEORY":"SGP4","OBJECT_NAME":"STARLINK-1475","TLE_LINE1":"1 45739U 20038K   22111.63471745  .00000800  00000-0  72633-4 0  9998","TLE_LINE2":"2 45739  53.0552  82.5086 0001851  50.1992 309.9159 15.06392997103988","COUNTRY_CODE":"US","DECAY_DATE":null,"NORAD_CAT_ID":"45739","CLASSIFICATION_TYPE":"U","APOAPSIS":"548.517","ARG_OF_PERICENTER":"50.1992","PERIAPSIS":"545.953","ELEMENT_SET_NO":"999","FILE":"3410450","MEAN_MOTION":"15.06392997","BSTAR":"0.00007263300000","MEAN_ANOMALY":"309.9159","OBJECT_TYPE":"PAYLOAD","REF_FRAME":"TEME","GP_ID":"201773263"},{"ECCENTRICITY":"0.00016410","INCLINATION":"53.0527","PERIOD":"95.592","SITE":"AFETR","SEMIMAJOR_AXIS":"6925.327","OBJECT_ID":"2020-038L","CENTER_NAME":"EARTH","MEAN_MOTION_DDOT":"0.0000000000000","MEAN_MOTION_DOT":"0.00001502","LAUNCH_DATE":"2020-06-13","RA_OF_ASC_NODE":"121.9562","REV_AT_EPOCH":"10247","TIME_SYSTEM":"UTC","EPHEMERIS_TYPE":"0","RCS_SIZE":"LARGE","EPOCH":"2022-04-21T18:14:27.659040","DECAY_DATE":null,"NORAD_CAT_ID":"45740","CLASSIFICATION_TYPE":"U","APOAPSIS":"548.329","PERIAPSIS":"546.056","ARG_OF_PERICENTER":"58.3417","MEAN_ELEMENT_THEORY":"SGP4","OBJECT_NAME":"STARLINK-1479","TLE_LINE2":"2 45740  53.0527 121.9562 0001641  58.3417 301.7732 15.06406967102471","COUNTRY_CODE":"US","TLE_LINE1":"1 45740U 20038L   22111.76004235  .00001502  00000-0  11972-3 0  9998","GP_ID":"201774009","ELEMENT_SET_NO":"999","FILE":"3410450","MEAN_MOTION":"15.06406967","BSTAR":"0.00011972000000","REF_FRAME":"TEME","OBJECT_TYPE":"PAYLOAD","MEAN_ANOMALY":"301.7732"},{"GP_ID":"201772262","FILE":"3410450","MEAN_MOTION":"15.06401122","ELEMENT_SET_NO":"999","OBJECT_TYPE":"PAYLOAD","REF_FRAME":"TEME","MEAN_ANOMALY":"307.2832","BSTAR":"0.00005110500000","CLASSIFICATION_TYPE":"U","DECAY_DATE":null,"NORAD_CAT_ID":"45741","PERIAPSIS":"545.821","ARG_OF_PERICENTER":"52.8340","APOAPSIS":"548.599","MEAN_ELEMENT_THEORY":"SGP4","TLE_LINE2":"2 45741  53.0545 122.0964 0002006  52.8340 307.2832 15.06401122103594","COUNTRY_CODE":"US","TLE_LINE1":"1 45741U 20038M   22111.73054565  .00000480  00000-0  51105-4 0  9994","OBJECT_NAME":"STARLINK-1480","LAUNCH_DATE":"2020-06-13","MEAN_MOTION_DOT":"0.00000480","RA_OF_ASC_NODE":"122.0964","TIME_SYSTEM":"UTC","EPHEMERIS_TYPE":"0","REV_AT_EPOCH":"10359","EPOCH":"2022-04-21T17:31:59.144160","RCS_SIZE":"LARGE","INCLINATION":"53.0545","ECCENTRICITY":"0.00020060","SITE":"AFETR","PERIOD":"95.592","CENTER_NAME":"EARTH","MEAN_MOTION_DDOT":"0.0000000000000","OBJECT_ID":"2020-038M","SEMIMAJOR_AXIS":"6925.345"},{"EPOCH":"2022-04-21T17:21:22.781376","RCS_SIZE":"LARGE","TIME_SYSTEM":"UTC","EPHEMERIS_TYPE":"0","REV_AT_EPOCH":"10358","RA_OF_ASC_NODE":"122.1090","LAUNCH_DATE":"2020-06-13","MEAN_MOTION_DOT":"0.00000776","CENTER_NAME":"EARTH","MEAN_MOTION_DDOT":"0.0000000000000","OBJECT_ID":"2020-038N","SEMIMAJOR_AXIS":"6925.354","SITE":"AFETR","PERIOD":"95.592","INCLINATION":"53.0529","ECCENTRICITY":"0.00020570","OBJECT_TYPE":"PAYLOAD","MEAN_ANOMALY":"311.6778","REF_FRAME":"TEME","BSTAR":"0.00007103200000","MEAN_MOTION":"15.06398147","FILE":"3410450","ELEMENT_SET_NO":"999","GP_ID":"201772512","TLE_LINE2":"2 45742  53.0529 122.1090 0002057  48.4387 311.6778 15.06398147103585","COUNTRY_CODE":"US","TLE_LINE1":"1 45742U 20038N   22111.72318034  .00000776  00000-0  71032-4 0  9997","OBJECT_NAME":"STARLINK-1481","MEAN_ELEMENT_THEORY":"SGP4","PERIAPSIS":"545.795","ARG_OF_PERICENTER":"48.4387","APOAPSIS":"548.644","DECAY_DATE":null,"NORAD_CAT_ID":"45742","CLASSIFICATION_TYPE":"U"},{"CENTER_NAME":"EARTH","MEAN_MOTION_DDOT":"0.0000000000000","SEMIMAJOR_AXIS":"6925.351","OBJECT_ID":"2020-038P","SITE":"AFETR","PERIOD":"95.592","INCLINATION":"53.0603","ECCENTRICITY":"0.00023820","EPOCH":"2022-04-21T09:48:52.011648","RCS_SIZE":"LARGE","EPHEMERIS_TYPE":"0","TIME_SYSTEM":"UTC","REV_AT_EPOCH":"10242","RA_OF_ASC_NODE":"123.4111","LAUNCH_DATE":"2020-06-13","MEAN_MOTION_DOT":"-0.00000324","COUNTRY_CODE":"US","TLE_LINE2":"2 45743  53.0603 123.4111 0002382  27.7572 332.3543 15.06399346102428","TLE_LINE1":"1 45743U 20038P   22111.40893532 -.00000324  00000-0 -28277-5 0  9999","OBJECT_NAME":"STARLINK-1483","MEAN_ELEMENT_THEORY":"SGP4","PERIAPSIS":"545.566","ARG_OF_PERICENTER":"27.7572","APOAPSIS":"548.865","DECAY_DATE":null,"CLASSIFICATION_TYPE":"U","NORAD_CAT_ID":"45743","OBJECT_TYPE":"PAYLOAD","REF_FRAME":"TEME","MEAN_ANOMALY":"332.3543","BSTAR":"-0.00000282770000","FILE":"3410449","MEAN_MOTION":"15.06399346","ELEMENT_SET_NO":"999","GP_ID":"201747894"},{"ELEMENT_SET_NO":"999","FILE":"3410449","MEAN_MOTION":"15.06408799","BSTAR":"-0.00003059400000","OBJECT_TYPE":"PAYLOAD","REF_FRAME":"TEME","MEAN_ANOMALY":"316.2783","GP_ID":"201748142","MEAN_ELEMENT_THEORY":"SGP4","OBJECT_NAME":"STARLINK-1500","TLE_LINE2":"2 45744  53.0546 123.0479 0002033  43.8367 316.2783 15.06408799102444","COUNTRY_CODE":"US","TLE_LINE1":"1 45744U 20038Q   22111.51308265 -.00000738  00000-0 -30594-4 0  9999","CLASSIFICATION_TYPE":"U","DECAY_DATE":null,"NORAD_CAT_ID":"45744","APOAPSIS":"548.595","PERIAPSIS":"545.779","ARG_OF_PERICENTER":"43.8367","REV_AT_EPOCH":"10244","TIME_SYSTEM":"UTC","EPHEMERIS_TYPE":"0","RCS_SIZE":"LARGE","EPOCH":"2022-04-21T12:18:50.340960","MEAN_MOTION_DOT":"-0.00000738","LAUNCH_DATE":"2020-06-13","RA_OF_ASC_NODE":"123.0479","SEMIMAJOR_AXIS":"6925.322","OBJECT_ID":"2020-038Q","CENTER_NAME":"EARTH","MEAN_MOTION_DDOT":"0.0000000000000","ECCENTRICITY":"0.00020330","INCLINATION":"53.0546","PERIOD":"95.592","SITE":"AFETR"},{"ECCENTRICITY":"0.00019400","INCLINATION":"53.0513","PERIOD":"95.592","SITE":"AFETR","OBJECT_ID":"2020-038R","SEMIMAJOR_AXIS":"6925.325","CENTER_NAME":"EARTH","MEAN_MOTION_DDOT":"0.0000000000000","MEAN_MOTION_DOT":"0.00002809","LAUNCH_DATE":"2020-06-13","RA_OF_ASC_NODE":"123.1115","REV_AT_EPOCH":"10243","EPHEMERIS_TYPE":"0","TIME_SYSTEM":"UTC","RCS_SIZE":"LARGE","EPOCH":"2022-04-21T12:02:54.956544","DECAY_DATE":null,"NORAD_CAT_ID":"45745","CLASSIFICATION_TYPE":"U","APOAPSIS":"548.533","PERIAPSIS":"545.846","ARG_OF_PERICENTER":"54.2216","MEAN_ELEMENT_THEORY":"SGP4","OBJECT_NAME":"STARLINK-1503","TLE_LINE2":"2 45745  53.0513 123.1115 0001940  54.2216 305.8953 15.06407752102432","COUNTRY_CODE":"US","TLE_LINE1":"1 45745U 20038R   22111.50202496  .00002809  00000-0  20738-3 0  9995","GP_ID":"201748870","ELEMENT_SET_NO":"999","FILE":"3410449","MEAN_MOTION":"15.06407752","BSTAR":"0.00020738000000","MEAN_ANOMALY":"305.8953","OBJECT_TYPE":"PAYLOAD","REF_FRAME":"TEME"},{"MEAN_ANOMALY":"316.3711","OBJECT_TYPE":"PAYLOAD","REF_FRAME":"TEME","BSTAR":"0.00013196000000","FILE":"3410450","MEAN_MOTION":"15.06411717","ELEMENT_SET_NO":"999","GP_ID":"201773013","TLE_LINE1":"1 45746U 20038S   22111.71581062  .00001685  00000-0  13196-3 0  9999","COUNTRY_CODE":"US","TLE_LINE2":"2 45746  53.0540 122.1413 0002457  43.7472 316.3711 15.06411717103395","OBJECT_NAME":"STARLINK-1504","MEAN_ELEMENT_THEORY":"SGP4","ARG_OF_PERICENTER":"43.7472","PERIAPSIS":"545.476","APOAPSIS":"548.879","DECAY_DATE":null,"NORAD_CAT_ID":"45746","CLASSIFICATION_TYPE":"U","EPOCH":"2022-04-21T17:10:46.037568","RCS_SIZE":"LARGE","TIME_SYSTEM":"UTC","EPHEMERIS_TYPE":"0","REV_AT_EPOCH":"10339","RA_OF_ASC_NODE":"122.1413","LAUNCH_DATE":"2020-06-13","MEAN_MOTION_DOT":"0.00001685","MEAN_MOTION_DDOT":"0.0000000000000","CENTER_NAME":"EARTH","SEMIMAJOR_AXIS":"6925.313","OBJECT_ID":"2020-038S","SITE":"AFETR","PERIOD":"95.591","INCLINATION":"53.0540","ECCENTRICITY":"0.00024570"},{"CENTER_NAME":"EARTH","MEAN_MOTION_DDOT":"0.0000000000000","SEMIMAJOR_AXIS":"6925.342","OBJECT_ID":"2020-038T","SITE":"AFETR","PERIOD":"95.592","INCLINATION":"53.0542","ECCENTRICITY":"0.00019960","EPOCH":"2022-04-21T17:16:03.668160","RCS_SIZE":"LARGE","TIME_SYSTEM":"UTC","EPHEMERIS_TYPE":"0","REV_AT_EPOCH":"10339","RA_OF_ASC_NODE":"122.1336","LAUNCH_DATE":"2020-06-13","MEAN_MOTION_DOT":"0.00000739","COUNTRY_CODE":"US","TLE_LINE2":"2 45747  53.0542 122.1336 0001996  44.7797 315.3352 15.06402200103397","TLE_LINE1":"1 45747U 20038T   22111.71948690  .00000739  00000-0  68519-4 0  9993","OBJECT_NAME":"STARLINK-1506","MEAN_ELEMENT_THEORY":"SGP4","PERIAPSIS":"545.825","ARG_OF_PERICENTER":"44.7797","APOAPSIS":"548.589","CLASSIFICATION_TYPE":"U","DECAY_DATE":null,"NORAD_CAT_ID":"45747","OBJECT_TYPE":"PAYLOAD","MEAN_ANOMALY":"315.3352","REF_FRAME":"TEME","BSTAR":"0.00006851900000","FILE":"3410450","MEAN_MOTION":"15.06402200","ELEMENT_SET_NO":"999","GP_ID":"201773264"}];
